TISAT 1                 
1 36799U 10035E   26068.75703561  .00024554  00000+0  91005-3 0  9996
2 36799  98.0645   6.8512 0001343 159.3030 200.8262 15.27628633852505
STARLINK-35676          
1 67345U 26003M   26068.47740203  .00011848  00000+0  43947-3 0  9996
2 67345  43.0000 228.0670 0001337 268.6448  91.4250 15.27573613  8796
